<?xml version="1.0" encoding="UTF-8"?>
<kml xmlns="http://www.opengis.net/kml/2.2" xmlns:gx="http://www.google.com/kml/ext/2.2" xmlns:xsi="http://www.w3.org/2001/XMLSchema-instance"
 xsi:schemaLocation="http://www.opengis.net/kml/2.2 http://schemas.opengis.net/kml/2.2.0/ogckml22.xsd http://www.google.com/kml/ext/2.2 http://code.google.com/apis/kml/schema/kml22gx.xsd">
<Document id="Utah County Existing Walmarts">
  <name>Utah County Existing Walmarts</name>
  <snippet></snippet>
  <Folder id="FeatureLayer0">
    <name>Utah County Existing Walmarts</name>
    <snippet></snippet>
    <Placemark id="ID_00000">
      <name>UTAH</name>
      <snippet></snippet>
      <description><![CDATA[<html xmlns:fo="http://www.w3.org/1999/XSL/Format" xmlns:msxsl="urn:schemas-microsoft-com:xslt">

<head>

<META http-equiv="Content-Type" content="text/html">

<meta http-equiv="content-type" content="text/html; charset=UTF-8">

</head>

<body style="margin:0px 0px 0px 0px;overflow:auto;background:#FFFFFF;">

<table style="font-family:Arial,Verdana,Times;font-size:12px;text-align:left;width:100%;border-collapse:collapse;padding:3px 3px 3px 3px">

<tr style="text-align:center;font-weight:bold;background:#9CBCE2">

<td>UTAH</td>

</tr>

<tr>

<td>

<table style="font-family:Arial,Verdana,Times;font-size:12px;text-align:left;width:100%;border-spacing:0px; padding:3px 3px 3px 3px">

<tr>

<td>FID_WalmartStoreStatus_ExportFeatures</td>

<td>3807</td>

</tr>

<tr bgcolor="#D4E4F3">

<td>businessUnit_name</td>

<td>PAYSON UT</td>

</tr>

<tr>

<td>businessUnit_number</td>

<td>5167</td>

</tr>

<tr bgcolor="#D4E4F3">

<td>Description</td>

<td>WM Supercenter</td>

</tr>

<tr>

<td>Type</td>

<td>Retail</td>

</tr>

<tr bgcolor="#D4E4F3">

<td>businessUnit_isStoreOpen</td>

<td>true</td>

</tr>

<tr>

<td>Address</td>

<td>1052 TURF FARM RD</td>

</tr>

<tr bgcolor="#D4E4F3">

<td>City</td>

<td>PAYSON</td>

</tr>

<tr>

<td>County</td>

<td>UTAH</td>

</tr>

<tr bgcolor="#D4E4F3">

<td>State</td>

<td>UT</td>

</tr>

<tr>

<td>Postal Code</td>

<td>84651-1645</td>

</tr>

<tr bgcolor="#D4E4F3">

<td>businessUnit_status_code</td>

<td>2</td>

</tr>

<tr>

<td>Operation Status</td>

<td>Open</td>

</tr>

<tr bgcolor="#D4E4F3">

<td>Modified Operating Hours</td>

<td>&lt;Null&gt;</td>

</tr>

<tr>

<td>Pharmacy open to public</td>

<td>Y</td>

</tr>

<tr bgcolor="#D4E4F3">

<td>Fuel Station open to public</td>

<td>Y</td>

</tr>

<tr>

<td>Business Unit #</td>

<td>5167</td>

</tr>

<tr bgcolor="#D4E4F3">

<td>Grocery delivery service offered</td>

<td>No</td>

</tr>

<tr>

<td>Grocery delivery status</td>

<td>Available</td>

</tr>

<tr bgcolor="#D4E4F3">

<td>Online grocery pickup service offered</td>

<td>Yes</td>

</tr>

<tr>

<td>Online grocery pickup status</td>

<td>Available</td>

</tr>

<tr bgcolor="#D4E4F3">

<td>FID_UtahCountyBoundary</td>

<td>0</td>

</tr>

<tr>

<td>COUNTYNBR</td>

<td>25</td>

</tr>

<tr bgcolor="#D4E4F3">

<td>ENTITYNBR</td>

<td>2010251010</td>

</tr>

<tr>

<td>ENTITYYR</td>

<td>2010</td>

</tr>

<tr bgcolor="#D4E4F3">

<td>NAME</td>

<td>UTAH</td>

</tr>

<tr>

<td>FIPS</td>

<td>49</td>

</tr>

<tr bgcolor="#D4E4F3">

<td>STATEPLANE</td>

<td>Central</td>

</tr>

<tr>

<td>POP_LASTCE</td>

<td>516564</td>

</tr>

<tr bgcolor="#D4E4F3">

<td>POP_CURRES</td>

<td>516564</td>

</tr>

<tr>

<td>FIPS_STR</td>

<td>49049</td>

</tr>

<tr bgcolor="#D4E4F3">

<td>COLOR4</td>

<td>3</td>

</tr>

<tr>

<td>Shape_Leng</td>

<td>481096.558971</td>

</tr>

</table>

</td>

</tr>

</table>

</body><script type="text/javascript">

				function changeImage(attElement, nameElement) {

				document.getElementById('imageAttachment').src = attElement;

				document.getElementById('imageName').innerHTML = nameElement;}

			</script></html>

]]></description>
      <Point>
        <extrude>0</extrude><altitudeMode>clampToGround</altitudeMode>
        <coordinates> -111.7564469999509,40.02767500034341,0</coordinates>
      </Point>
    </Placemark>
    <Placemark id="ID_00001">
      <name>UTAH</name>
      <snippet></snippet>
      <description><![CDATA[<html xmlns:fo="http://www.w3.org/1999/XSL/Format" xmlns:msxsl="urn:schemas-microsoft-com:xslt">

<head>

<META http-equiv="Content-Type" content="text/html">

<meta http-equiv="content-type" content="text/html; charset=UTF-8">

</head>

<body style="margin:0px 0px 0px 0px;overflow:auto;background:#FFFFFF;">

<table style="font-family:Arial,Verdana,Times;font-size:12px;text-align:left;width:100%;border-collapse:collapse;padding:3px 3px 3px 3px">

<tr style="text-align:center;font-weight:bold;background:#9CBCE2">

<td>UTAH</td>

</tr>

<tr>

<td>

<table style="font-family:Arial,Verdana,Times;font-size:12px;text-align:left;width:100%;border-spacing:0px; padding:3px 3px 3px 3px">

<tr>

<td>FID_WalmartStoreStatus_ExportFeatures</td>

<td>3043</td>

</tr>

<tr bgcolor="#D4E4F3">

<td>businessUnit_name</td>

<td>SPANISH FORK UT</td>

</tr>

<tr>

<td>businessUnit_number</td>

<td>3988</td>

</tr>

<tr bgcolor="#D4E4F3">

<td>Description</td>

<td>Neighborhood Market</td>

</tr>

<tr>

<td>Type</td>

<td>Retail</td>

</tr>

<tr bgcolor="#D4E4F3">

<td>businessUnit_isStoreOpen</td>

<td>true</td>

</tr>

<tr>

<td>Address</td>

<td>898 S 2550 E</td>

</tr>

<tr bgcolor="#D4E4F3">

<td>City</td>

<td>SPANISH FORK</td>

</tr>

<tr>

<td>County</td>

<td>UTAH</td>

</tr>

<tr bgcolor="#D4E4F3">

<td>State</td>

<td>UT</td>

</tr>

<tr>

<td>Postal Code</td>

<td>84660-6190</td>

</tr>

<tr bgcolor="#D4E4F3">

<td>businessUnit_status_code</td>

<td>2</td>

</tr>

<tr>

<td>Operation Status</td>

<td>Open</td>

</tr>

<tr bgcolor="#D4E4F3">

<td>Modified Operating Hours</td>

<td>&lt;Null&gt;</td>

</tr>

<tr>

<td>Pharmacy open to public</td>

<td>Y</td>

</tr>

<tr bgcolor="#D4E4F3">

<td>Fuel Station open to public</td>

<td>Y</td>

</tr>

<tr>

<td>Business Unit #</td>

<td>3988</td>

</tr>

<tr bgcolor="#D4E4F3">

<td>Grocery delivery service offered</td>

<td>No</td>

</tr>

<tr>

<td>Grocery delivery status</td>

<td>&lt;Null&gt;</td>

</tr>

<tr bgcolor="#D4E4F3">

<td>Online grocery pickup service offered</td>

<td>No</td>

</tr>

<tr>

<td>Online grocery pickup status</td>

<td>Available</td>

</tr>

<tr bgcolor="#D4E4F3">

<td>FID_UtahCountyBoundary</td>

<td>0</td>

</tr>

<tr>

<td>COUNTYNBR</td>

<td>25</td>

</tr>

<tr bgcolor="#D4E4F3">

<td>ENTITYNBR</td>

<td>2010251010</td>

</tr>

<tr>

<td>ENTITYYR</td>

<td>2010</td>

</tr>

<tr bgcolor="#D4E4F3">

<td>NAME</td>

<td>UTAH</td>

</tr>

<tr>

<td>FIPS</td>

<td>49</td>

</tr>

<tr bgcolor="#D4E4F3">

<td>STATEPLANE</td>

<td>Central</td>

</tr>

<tr>

<td>POP_LASTCE</td>

<td>516564</td>

</tr>

<tr bgcolor="#D4E4F3">

<td>POP_CURRES</td>

<td>516564</td>

</tr>

<tr>

<td>FIPS_STR</td>

<td>49049</td>

</tr>

<tr bgcolor="#D4E4F3">

<td>COLOR4</td>

<td>3</td>

</tr>

<tr>

<td>Shape_Leng</td>

<td>481096.558971</td>

</tr>

</table>

</td>

</tr>

</table>

</body><script type="text/javascript">

				function changeImage(attElement, nameElement) {

				document.getElementById('imageAttachment').src = attElement;

				document.getElementById('imageName').innerHTML = nameElement;}

			</script></html>

]]></description>
      <Point>
        <extrude>0</extrude><altitudeMode>clampToGround</altitudeMode>
        <coordinates> -111.6133790000301,40.09889400001799,0</coordinates>
      </Point>
    </Placemark>
    <Placemark id="ID_00002">
      <name>UTAH</name>
      <snippet></snippet>
      <description><![CDATA[<html xmlns:fo="http://www.w3.org/1999/XSL/Format" xmlns:msxsl="urn:schemas-microsoft-com:xslt">

<head>

<META http-equiv="Content-Type" content="text/html">

<meta http-equiv="content-type" content="text/html; charset=UTF-8">

</head>

<body style="margin:0px 0px 0px 0px;overflow:auto;background:#FFFFFF;">

<table style="font-family:Arial,Verdana,Times;font-size:12px;text-align:left;width:100%;border-collapse:collapse;padding:3px 3px 3px 3px">

<tr style="text-align:center;font-weight:bold;background:#9CBCE2">

<td>UTAH</td>

</tr>

<tr>

<td>

<table style="font-family:Arial,Verdana,Times;font-size:12px;text-align:left;width:100%;border-spacing:0px; padding:3px 3px 3px 3px">

<tr>

<td>FID_WalmartStoreStatus_ExportFeatures</td>

<td>3067</td>

</tr>

<tr bgcolor="#D4E4F3">

<td>businessUnit_name</td>

<td>SPANISH FORK UT</td>

</tr>

<tr>

<td>businessUnit_number</td>

<td>4068</td>

</tr>

<tr bgcolor="#D4E4F3">

<td>Description</td>

<td>WM Supercenter</td>

</tr>

<tr>

<td>Type</td>

<td>Retail</td>

</tr>

<tr bgcolor="#D4E4F3">

<td>businessUnit_isStoreOpen</td>

<td>true</td>

</tr>

<tr>

<td>Address</td>

<td>1206 N CANYON CREEK PKWY</td>

</tr>

<tr bgcolor="#D4E4F3">

<td>City</td>

<td>SPANISH FORK</td>

</tr>

<tr>

<td>County</td>

<td>UTAH</td>

</tr>

<tr bgcolor="#D4E4F3">

<td>State</td>

<td>UT</td>

</tr>

<tr>

<td>Postal Code</td>

<td>84660-1319</td>

</tr>

<tr bgcolor="#D4E4F3">

<td>businessUnit_status_code</td>

<td>2</td>

</tr>

<tr>

<td>Operation Status</td>

<td>Open</td>

</tr>

<tr bgcolor="#D4E4F3">

<td>Modified Operating Hours</td>

<td>&lt;Null&gt;</td>

</tr>

<tr>

<td>Pharmacy open to public</td>

<td>Y</td>

</tr>

<tr bgcolor="#D4E4F3">

<td>Fuel Station open to public</td>

<td>Y</td>

</tr>

<tr>

<td>Business Unit #</td>

<td>4068</td>

</tr>

<tr bgcolor="#D4E4F3">

<td>Grocery delivery service offered</td>

<td>No</td>

</tr>

<tr>

<td>Grocery delivery status</td>

<td>Available</td>

</tr>

<tr bgcolor="#D4E4F3">

<td>Online grocery pickup service offered</td>

<td>No</td>

</tr>

<tr>

<td>Online grocery pickup status</td>

<td>Available</td>

</tr>

<tr bgcolor="#D4E4F3">

<td>FID_UtahCountyBoundary</td>

<td>0</td>

</tr>

<tr>

<td>COUNTYNBR</td>

<td>25</td>

</tr>

<tr bgcolor="#D4E4F3">

<td>ENTITYNBR</td>

<td>2010251010</td>

</tr>

<tr>

<td>ENTITYYR</td>

<td>2010</td>

</tr>

<tr bgcolor="#D4E4F3">

<td>NAME</td>

<td>UTAH</td>

</tr>

<tr>

<td>FIPS</td>

<td>49</td>

</tr>

<tr bgcolor="#D4E4F3">

<td>STATEPLANE</td>

<td>Central</td>

</tr>

<tr>

<td>POP_LASTCE</td>

<td>516564</td>

</tr>

<tr bgcolor="#D4E4F3">

<td>POP_CURRES</td>

<td>516564</td>

</tr>

<tr>

<td>FIPS_STR</td>

<td>49049</td>

</tr>

<tr bgcolor="#D4E4F3">

<td>COLOR4</td>

<td>3</td>

</tr>

<tr>

<td>Shape_Leng</td>

<td>481096.558971</td>

</tr>

</table>

</td>

</tr>

</table>

</body><script type="text/javascript">

				function changeImage(attElement, nameElement) {

				document.getElementById('imageAttachment').src = attElement;

				document.getElementById('imageName').innerHTML = nameElement;}

			</script></html>

]]></description>
      <Point>
        <extrude>0</extrude><altitudeMode>clampToGround</altitudeMode>
        <coordinates> -111.6387590002427,40.12381899974298,0</coordinates>
      </Point>
    </Placemark>
    <Placemark id="ID_00003">
      <name>UTAH</name>
      <snippet></snippet>
      <description><![CDATA[<html xmlns:fo="http://www.w3.org/1999/XSL/Format" xmlns:msxsl="urn:schemas-microsoft-com:xslt">

<head>

<META http-equiv="Content-Type" content="text/html">

<meta http-equiv="content-type" content="text/html; charset=UTF-8">

</head>

<body style="margin:0px 0px 0px 0px;overflow:auto;background:#FFFFFF;">

<table style="font-family:Arial,Verdana,Times;font-size:12px;text-align:left;width:100%;border-collapse:collapse;padding:3px 3px 3px 3px">

<tr style="text-align:center;font-weight:bold;background:#9CBCE2">

<td>UTAH</td>

</tr>

<tr>

<td>

<table style="font-family:Arial,Verdana,Times;font-size:12px;text-align:left;width:100%;border-spacing:0px; padding:3px 3px 3px 3px">

<tr>

<td>FID_WalmartStoreStatus_ExportFeatures</td>

<td>2140</td>

</tr>

<tr bgcolor="#D4E4F3">

<td>businessUnit_name</td>

<td>SPRINGVILLE, UT</td>

</tr>

<tr>

<td>businessUnit_number</td>

<td>3208</td>

</tr>

<tr bgcolor="#D4E4F3">

<td>Description</td>

<td>WM Supercenter</td>

</tr>

<tr>

<td>Type</td>

<td>Retail</td>

</tr>

<tr bgcolor="#D4E4F3">

<td>businessUnit_isStoreOpen</td>

<td>true</td>

</tr>

<tr>

<td>Address</td>

<td>660 S 1750 W</td>

</tr>

<tr bgcolor="#D4E4F3">

<td>City</td>

<td>SPRINGVILLE</td>

</tr>

<tr>

<td>County</td>

<td>UTAH</td>

</tr>

<tr bgcolor="#D4E4F3">

<td>State</td>

<td>UT</td>

</tr>

<tr>

<td>Postal Code</td>

<td>84663-3071</td>

</tr>

<tr bgcolor="#D4E4F3">

<td>businessUnit_status_code</td>

<td>2</td>

</tr>

<tr>

<td>Operation Status</td>

<td>Open</td>

</tr>

<tr bgcolor="#D4E4F3">

<td>Modified Operating Hours</td>

<td>&lt;Null&gt;</td>

</tr>

<tr>

<td>Pharmacy open to public</td>

<td>Y</td>

</tr>

<tr bgcolor="#D4E4F3">

<td>Fuel Station open to public</td>

<td>Y</td>

</tr>

<tr>

<td>Business Unit #</td>

<td>3208</td>

</tr>

<tr bgcolor="#D4E4F3">

<td>Grocery delivery service offered</td>

<td>No</td>

</tr>

<tr>

<td>Grocery delivery status</td>

<td>Available</td>

</tr>

<tr bgcolor="#D4E4F3">

<td>Online grocery pickup service offered</td>

<td>No</td>

</tr>

<tr>

<td>Online grocery pickup status</td>

<td>Available</td>

</tr>

<tr bgcolor="#D4E4F3">

<td>FID_UtahCountyBoundary</td>

<td>0</td>

</tr>

<tr>

<td>COUNTYNBR</td>

<td>25</td>

</tr>

<tr bgcolor="#D4E4F3">

<td>ENTITYNBR</td>

<td>2010251010</td>

</tr>

<tr>

<td>ENTITYYR</td>

<td>2010</td>

</tr>

<tr bgcolor="#D4E4F3">

<td>NAME</td>

<td>UTAH</td>

</tr>

<tr>

<td>FIPS</td>

<td>49</td>

</tr>

<tr bgcolor="#D4E4F3">

<td>STATEPLANE</td>

<td>Central</td>

</tr>

<tr>

<td>POP_LASTCE</td>

<td>516564</td>

</tr>

<tr bgcolor="#D4E4F3">

<td>POP_CURRES</td>

<td>516564</td>

</tr>

<tr>

<td>FIPS_STR</td>

<td>49049</td>

</tr>

<tr bgcolor="#D4E4F3">

<td>COLOR4</td>

<td>3</td>

</tr>

<tr>

<td>Shape_Leng</td>

<td>481096.558971</td>

</tr>

</table>

</td>

</tr>

</table>

</body><script type="text/javascript">

				function changeImage(attElement, nameElement) {

				document.getElementById('imageAttachment').src = attElement;

				document.getElementById('imageName').innerHTML = nameElement;}

			</script></html>

]]></description>
      <Point>
        <extrude>0</extrude><altitudeMode>clampToGround</altitudeMode>
        <coordinates> -111.6442879996624,40.15732600011297,0</coordinates>
      </Point>
    </Placemark>
    <Placemark id="ID_00004">
      <name>UTAH</name>
      <snippet></snippet>
      <description><![CDATA[<html xmlns:fo="http://www.w3.org/1999/XSL/Format" xmlns:msxsl="urn:schemas-microsoft-com:xslt">

<head>

<META http-equiv="Content-Type" content="text/html">

<meta http-equiv="content-type" content="text/html; charset=UTF-8">

</head>

<body style="margin:0px 0px 0px 0px;overflow:auto;background:#FFFFFF;">

<table style="font-family:Arial,Verdana,Times;font-size:12px;text-align:left;width:100%;border-collapse:collapse;padding:3px 3px 3px 3px">

<tr style="text-align:center;font-weight:bold;background:#9CBCE2">

<td>UTAH</td>

</tr>

<tr>

<td>

<table style="font-family:Arial,Verdana,Times;font-size:12px;text-align:left;width:100%;border-spacing:0px; padding:3px 3px 3px 3px">

<tr>

<td>FID_WalmartStoreStatus_ExportFeatures</td>

<td>4598</td>

</tr>

<tr bgcolor="#D4E4F3">

<td>businessUnit_name</td>

<td>PROVO, UT</td>

</tr>

<tr>

<td>businessUnit_number</td>

<td>6685</td>

</tr>

<tr bgcolor="#D4E4F3">

<td>Description</td>

<td>Sam's Club</td>

</tr>

<tr>

<td>Type</td>

<td>Wholesale</td>

</tr>

<tr bgcolor="#D4E4F3">

<td>businessUnit_isStoreOpen</td>

<td>true</td>

</tr>

<tr>

<td>Address</td>

<td>1313 S UNIVERSITY AVE</td>

</tr>

<tr bgcolor="#D4E4F3">

<td>City</td>

<td>PROVO</td>

</tr>

<tr>

<td>County</td>

<td>UTAH</td>

</tr>

<tr bgcolor="#D4E4F3">

<td>State</td>

<td>UT</td>

</tr>

<tr>

<td>Postal Code</td>

<td>84601-5943</td>

</tr>

<tr bgcolor="#D4E4F3">

<td>businessUnit_status_code</td>

<td>5</td>

</tr>

<tr>

<td>Operation Status</td>

<td>Open</td>

</tr>

<tr bgcolor="#D4E4F3">

<td>Modified Operating Hours</td>

<td>&lt;Null&gt;</td>

</tr>

<tr>

<td>Pharmacy open to public</td>

<td>Y</td>

</tr>

<tr bgcolor="#D4E4F3">

<td>Fuel Station open to public</td>

<td>Y</td>

</tr>

<tr>

<td>Business Unit #</td>

<td>6685</td>

</tr>

<tr bgcolor="#D4E4F3">

<td>Grocery delivery service offered</td>

<td>&lt;Null&gt;</td>

</tr>

<tr>

<td>Grocery delivery status</td>

<td>&lt;Null&gt;</td>

</tr>

<tr bgcolor="#D4E4F3">

<td>Online grocery pickup service offered</td>

<td>&lt;Null&gt;</td>

</tr>

<tr>

<td>Online grocery pickup status</td>

<td>&lt;Null&gt;</td>

</tr>

<tr bgcolor="#D4E4F3">

<td>FID_UtahCountyBoundary</td>

<td>0</td>

</tr>

<tr>

<td>COUNTYNBR</td>

<td>25</td>

</tr>

<tr bgcolor="#D4E4F3">

<td>ENTITYNBR</td>

<td>2010251010</td>

</tr>

<tr>

<td>ENTITYYR</td>

<td>2010</td>

</tr>

<tr bgcolor="#D4E4F3">

<td>NAME</td>

<td>UTAH</td>

</tr>

<tr>

<td>FIPS</td>

<td>49</td>

</tr>

<tr bgcolor="#D4E4F3">

<td>STATEPLANE</td>

<td>Central</td>

</tr>

<tr>

<td>POP_LASTCE</td>

<td>516564</td>

</tr>

<tr bgcolor="#D4E4F3">

<td>POP_CURRES</td>

<td>516564</td>

</tr>

<tr>

<td>FIPS_STR</td>

<td>49049</td>

</tr>

<tr bgcolor="#D4E4F3">

<td>COLOR4</td>

<td>3</td>

</tr>

<tr>

<td>Shape_Leng</td>

<td>481096.558971</td>

</tr>

</table>

</td>

</tr>

</table>

</body><script type="text/javascript">

				function changeImage(attElement, nameElement) {

				document.getElementById('imageAttachment').src = attElement;

				document.getElementById('imageName').innerHTML = nameElement;}

			</script></html>

]]></description>
      <Point>
        <extrude>0</extrude><altitudeMode>clampToGround</altitudeMode>
        <coordinates> -111.6570529996626,40.21610300006332,0</coordinates>
      </Point>
    </Placemark>
    <Placemark id="ID_00005">
      <name>UTAH</name>
      <snippet></snippet>
      <description><![CDATA[<html xmlns:fo="http://www.w3.org/1999/XSL/Format" xmlns:msxsl="urn:schemas-microsoft-com:xslt">

<head>

<META http-equiv="Content-Type" content="text/html">

<meta http-equiv="content-type" content="text/html; charset=UTF-8">

</head>

<body style="margin:0px 0px 0px 0px;overflow:auto;background:#FFFFFF;">

<table style="font-family:Arial,Verdana,Times;font-size:12px;text-align:left;width:100%;border-collapse:collapse;padding:3px 3px 3px 3px">

<tr style="text-align:center;font-weight:bold;background:#9CBCE2">

<td>UTAH</td>

</tr>

<tr>

<td>

<table style="font-family:Arial,Verdana,Times;font-size:12px;text-align:left;width:100%;border-spacing:0px; padding:3px 3px 3px 3px">

<tr>

<td>FID_WalmartStoreStatus_ExportFeatures</td>

<td>3073</td>

</tr>

<tr bgcolor="#D4E4F3">

<td>businessUnit_name</td>

<td>PROVO UNIVERSITY UT</td>

</tr>

<tr>

<td>businessUnit_number</td>

<td>4100</td>

</tr>

<tr bgcolor="#D4E4F3">

<td>Description</td>

<td>Neighborhood Market</td>

</tr>

<tr>

<td>Type</td>

<td>Retail</td>

</tr>

<tr bgcolor="#D4E4F3">

<td>businessUnit_isStoreOpen</td>

<td>true</td>

</tr>

<tr>

<td>Address</td>

<td>2255 N UNIVERSITY PKWY</td>

</tr>

<tr bgcolor="#D4E4F3">

<td>City</td>

<td>PROVO</td>

</tr>

<tr>

<td>County</td>

<td>UTAH</td>

</tr>

<tr bgcolor="#D4E4F3">

<td>State</td>

<td>UT</td>

</tr>

<tr>

<td>Postal Code</td>

<td>84604-1588</td>

</tr>

<tr bgcolor="#D4E4F3">

<td>businessUnit_status_code</td>

<td>2</td>

</tr>

<tr>

<td>Operation Status</td>

<td>Open</td>

</tr>

<tr bgcolor="#D4E4F3">

<td>Modified Operating Hours</td>

<td>&lt;Null&gt;</td>

</tr>

<tr>

<td>Pharmacy open to public</td>

<td>Y</td>

</tr>

<tr bgcolor="#D4E4F3">

<td>Fuel Station open to public</td>

<td>Y</td>

</tr>

<tr>

<td>Business Unit #</td>

<td>4100</td>

</tr>

<tr bgcolor="#D4E4F3">

<td>Grocery delivery service offered</td>

<td>Yes</td>

</tr>

<tr>

<td>Grocery delivery status</td>

<td>Available</td>

</tr>

<tr bgcolor="#D4E4F3">

<td>Online grocery pickup service offered</td>

<td>Yes</td>

</tr>

<tr>

<td>Online grocery pickup status</td>

<td>Available</td>

</tr>

<tr bgcolor="#D4E4F3">

<td>FID_UtahCountyBoundary</td>

<td>0</td>

</tr>

<tr>

<td>COUNTYNBR</td>

<td>25</td>

</tr>

<tr bgcolor="#D4E4F3">

<td>ENTITYNBR</td>

<td>2010251010</td>

</tr>

<tr>

<td>ENTITYYR</td>

<td>2010</td>

</tr>

<tr bgcolor="#D4E4F3">

<td>NAME</td>

<td>UTAH</td>

</tr>

<tr>

<td>FIPS</td>

<td>49</td>

</tr>

<tr bgcolor="#D4E4F3">

<td>STATEPLANE</td>

<td>Central</td>

</tr>

<tr>

<td>POP_LASTCE</td>

<td>516564</td>

</tr>

<tr bgcolor="#D4E4F3">

<td>POP_CURRES</td>

<td>516564</td>

</tr>

<tr>

<td>FIPS_STR</td>

<td>49049</td>

</tr>

<tr bgcolor="#D4E4F3">

<td>COLOR4</td>

<td>3</td>

</tr>

<tr>

<td>Shape_Leng</td>

<td>481096.558971</td>

</tr>

</table>

</td>

</tr>

</table>

</body><script type="text/javascript">

				function changeImage(attElement, nameElement) {

				document.getElementById('imageAttachment').src = attElement;

				document.getElementById('imageName').innerHTML = nameElement;}

			</script></html>

]]></description>
      <Point>
        <extrude>0</extrude><altitudeMode>clampToGround</altitudeMode>
        <coordinates> -111.6699819996943,40.26291299965746,0</coordinates>
      </Point>
    </Placemark>
    <Placemark id="ID_00006">
      <name>UTAH</name>
      <snippet></snippet>
      <description><![CDATA[<html xmlns:fo="http://www.w3.org/1999/XSL/Format" xmlns:msxsl="urn:schemas-microsoft-com:xslt">

<head>

<META http-equiv="Content-Type" content="text/html">

<meta http-equiv="content-type" content="text/html; charset=UTF-8">

</head>

<body style="margin:0px 0px 0px 0px;overflow:auto;background:#FFFFFF;">

<table style="font-family:Arial,Verdana,Times;font-size:12px;text-align:left;width:100%;border-collapse:collapse;padding:3px 3px 3px 3px">

<tr style="text-align:center;font-weight:bold;background:#9CBCE2">

<td>UTAH</td>

</tr>

<tr>

<td>

<table style="font-family:Arial,Verdana,Times;font-size:12px;text-align:left;width:100%;border-spacing:0px; padding:3px 3px 3px 3px">

<tr>

<td>FID_WalmartStoreStatus_ExportFeatures</td>

<td>846</td>

</tr>

<tr bgcolor="#D4E4F3">

<td>businessUnit_name</td>

<td>OREM UT</td>

</tr>

<tr>

<td>businessUnit_number</td>

<td>1768</td>

</tr>

<tr bgcolor="#D4E4F3">

<td>Description</td>

<td>WM Supercenter</td>

</tr>

<tr>

<td>Type</td>

<td>Retail</td>

</tr>

<tr bgcolor="#D4E4F3">

<td>businessUnit_isStoreOpen</td>

<td>true</td>

</tr>

<tr>

<td>Address</td>

<td>1355 SANDHILL RD</td>

</tr>

<tr bgcolor="#D4E4F3">

<td>City</td>

<td>OREM</td>

</tr>

<tr>

<td>County</td>

<td>UTAH</td>

</tr>

<tr bgcolor="#D4E4F3">

<td>State</td>

<td>UT</td>

</tr>

<tr>

<td>Postal Code</td>

<td>84058-7307</td>

</tr>

<tr bgcolor="#D4E4F3">

<td>businessUnit_status_code</td>

<td>5</td>

</tr>

<tr>

<td>Operation Status</td>

<td>Open</td>

</tr>

<tr bgcolor="#D4E4F3">

<td>Modified Operating Hours</td>

<td>&lt;Null&gt;</td>

</tr>

<tr>

<td>Pharmacy open to public</td>

<td>Y</td>

</tr>

<tr bgcolor="#D4E4F3">

<td>Fuel Station open to public</td>

<td>Y</td>

</tr>

<tr>

<td>Business Unit #</td>

<td>1768</td>

</tr>

<tr bgcolor="#D4E4F3">

<td>Grocery delivery service offered</td>

<td>No</td>

</tr>

<tr>

<td>Grocery delivery status</td>

<td>Available</td>

</tr>

<tr bgcolor="#D4E4F3">

<td>Online grocery pickup service offered</td>

<td>No</td>

</tr>

<tr>

<td>Online grocery pickup status</td>

<td>Available</td>

</tr>

<tr bgcolor="#D4E4F3">

<td>FID_UtahCountyBoundary</td>

<td>0</td>

</tr>

<tr>

<td>COUNTYNBR</td>

<td>25</td>

</tr>

<tr bgcolor="#D4E4F3">

<td>ENTITYNBR</td>

<td>2010251010</td>

</tr>

<tr>

<td>ENTITYYR</td>

<td>2010</td>

</tr>

<tr bgcolor="#D4E4F3">

<td>NAME</td>

<td>UTAH</td>

</tr>

<tr>

<td>FIPS</td>

<td>49</td>

</tr>

<tr bgcolor="#D4E4F3">

<td>STATEPLANE</td>

<td>Central</td>

</tr>

<tr>

<td>POP_LASTCE</td>

<td>516564</td>

</tr>

<tr bgcolor="#D4E4F3">

<td>POP_CURRES</td>

<td>516564</td>

</tr>

<tr>

<td>FIPS_STR</td>

<td>49049</td>

</tr>

<tr bgcolor="#D4E4F3">

<td>COLOR4</td>

<td>3</td>

</tr>

<tr>

<td>Shape_Leng</td>

<td>481096.558971</td>

</tr>

</table>

</td>

</tr>

</table>

</body><script type="text/javascript">

				function changeImage(attElement, nameElement) {

				document.getElementById('imageAttachment').src = attElement;

				document.getElementById('imageName').innerHTML = nameElement;}

			</script></html>

]]></description>
      <Point>
        <extrude>0</extrude><altitudeMode>clampToGround</altitudeMode>
        <coordinates> -111.7102169995859,40.272656000283,0</coordinates>
      </Point>
    </Placemark>
    <Placemark id="ID_00007">
      <name>UTAH</name>
      <snippet></snippet>
      <description><![CDATA[<html xmlns:fo="http://www.w3.org/1999/XSL/Format" xmlns:msxsl="urn:schemas-microsoft-com:xslt">

<head>

<META http-equiv="Content-Type" content="text/html">

<meta http-equiv="content-type" content="text/html; charset=UTF-8">

</head>

<body style="margin:0px 0px 0px 0px;overflow:auto;background:#FFFFFF;">

<table style="font-family:Arial,Verdana,Times;font-size:12px;text-align:left;width:100%;border-collapse:collapse;padding:3px 3px 3px 3px">

<tr style="text-align:center;font-weight:bold;background:#9CBCE2">

<td>UTAH</td>

</tr>

<tr>

<td>

<table style="font-family:Arial,Verdana,Times;font-size:12px;text-align:left;width:100%;border-spacing:0px; padding:3px 3px 3px 3px">

<tr>

<td>FID_WalmartStoreStatus_ExportFeatures</td>

<td>3902</td>

</tr>

<tr bgcolor="#D4E4F3">

<td>businessUnit_name</td>

<td>LINDON UT</td>

</tr>

<tr>

<td>businessUnit_number</td>

<td>5270</td>

</tr>

<tr bgcolor="#D4E4F3">

<td>Description</td>

<td>WM Supercenter</td>

</tr>

<tr>

<td>Type</td>

<td>Retail</td>

</tr>

<tr bgcolor="#D4E4F3">

<td>businessUnit_isStoreOpen</td>

<td>true</td>

</tr>

<tr>

<td>Address</td>

<td>585 N STATE ST</td>

</tr>

<tr bgcolor="#D4E4F3">

<td>City</td>

<td>LINDON</td>

</tr>

<tr>

<td>County</td>

<td>UTAH</td>

</tr>

<tr bgcolor="#D4E4F3">

<td>State</td>

<td>UT</td>

</tr>

<tr>

<td>Postal Code</td>

<td>84042-1339</td>

</tr>

<tr bgcolor="#D4E4F3">

<td>businessUnit_status_code</td>

<td>2</td>

</tr>

<tr>

<td>Operation Status</td>

<td>Open</td>

</tr>

<tr bgcolor="#D4E4F3">

<td>Modified Operating Hours</td>

<td>&lt;Null&gt;</td>

</tr>

<tr>

<td>Pharmacy open to public</td>

<td>Y</td>

</tr>

<tr bgcolor="#D4E4F3">

<td>Fuel Station open to public</td>

<td>Y</td>

</tr>

<tr>

<td>Business Unit #</td>

<td>5270</td>

</tr>

<tr bgcolor="#D4E4F3">

<td>Grocery delivery service offered</td>

<td>Yes</td>

</tr>

<tr>

<td>Grocery delivery status</td>

<td>Available</td>

</tr>

<tr bgcolor="#D4E4F3">

<td>Online grocery pickup service offered</td>

<td>Yes</td>

</tr>

<tr>

<td>Online grocery pickup status</td>

<td>Available</td>

</tr>

<tr bgcolor="#D4E4F3">

<td>FID_UtahCountyBoundary</td>

<td>0</td>

</tr>

<tr>

<td>COUNTYNBR</td>

<td>25</td>

</tr>

<tr bgcolor="#D4E4F3">

<td>ENTITYNBR</td>

<td>2010251010</td>

</tr>

<tr>

<td>ENTITYYR</td>

<td>2010</td>

</tr>

<tr bgcolor="#D4E4F3">

<td>NAME</td>

<td>UTAH</td>

</tr>

<tr>

<td>FIPS</td>

<td>49</td>

</tr>

<tr bgcolor="#D4E4F3">

<td>STATEPLANE</td>

<td>Central</td>

</tr>

<tr>

<td>POP_LASTCE</td>

<td>516564</td>

</tr>

<tr bgcolor="#D4E4F3">

<td>POP_CURRES</td>

<td>516564</td>

</tr>

<tr>

<td>FIPS_STR</td>

<td>49049</td>

</tr>

<tr bgcolor="#D4E4F3">

<td>COLOR4</td>

<td>3</td>

</tr>

<tr>

<td>Shape_Leng</td>

<td>481096.558971</td>

</tr>

</table>

</td>

</tr>

</table>

</body><script type="text/javascript">

				function changeImage(attElement, nameElement) {

				document.getElementById('imageAttachment').src = attElement;

				document.getElementById('imageName').innerHTML = nameElement;}

			</script></html>

]]></description>
      <Point>
        <extrude>0</extrude><altitudeMode>clampToGround</altitudeMode>
        <coordinates> -111.7318169995757,40.34849899975098,0</coordinates>
      </Point>
    </Placemark>
    <Placemark id="ID_00008">
      <name>UTAH</name>
      <snippet></snippet>
      <description><![CDATA[<html xmlns:fo="http://www.w3.org/1999/XSL/Format" xmlns:msxsl="urn:schemas-microsoft-com:xslt">

<head>

<META http-equiv="Content-Type" content="text/html">

<meta http-equiv="content-type" content="text/html; charset=UTF-8">

</head>

<body style="margin:0px 0px 0px 0px;overflow:auto;background:#FFFFFF;">

<table style="font-family:Arial,Verdana,Times;font-size:12px;text-align:left;width:100%;border-collapse:collapse;padding:3px 3px 3px 3px">

<tr style="text-align:center;font-weight:bold;background:#9CBCE2">

<td>UTAH</td>

</tr>

<tr>

<td>

<table style="font-family:Arial,Verdana,Times;font-size:12px;text-align:left;width:100%;border-spacing:0px; padding:3px 3px 3px 3px">

<tr>

<td>FID_WalmartStoreStatus_ExportFeatures</td>

<td>3245</td>

</tr>

<tr bgcolor="#D4E4F3">

<td>businessUnit_name</td>

<td>PLEASANT GROVE UT</td>

</tr>

<tr>

<td>businessUnit_number</td>

<td>4700</td>

</tr>

<tr bgcolor="#D4E4F3">

<td>Description</td>

<td>Neighborhood Market</td>

</tr>

<tr>

<td>Type</td>

<td>Retail</td>

</tr>

<tr bgcolor="#D4E4F3">

<td>businessUnit_isStoreOpen</td>

<td>true</td>

</tr>

<tr>

<td>Address</td>

<td>1707 WEST STATE STREET</td>

</tr>

<tr bgcolor="#D4E4F3">

<td>City</td>

<td>PLEASANT GROVE</td>

</tr>

<tr>

<td>County</td>

<td>UTAH</td>

</tr>

<tr bgcolor="#D4E4F3">

<td>State</td>

<td>UT</td>

</tr>

<tr>

<td>Postal Code</td>

<td>84062-0000</td>

</tr>

<tr bgcolor="#D4E4F3">

<td>businessUnit_status_code</td>

<td>2</td>

</tr>

<tr>

<td>Operation Status</td>

<td>Open</td>

</tr>

<tr bgcolor="#D4E4F3">

<td>Modified Operating Hours</td>

<td>&lt;Null&gt;</td>

</tr>

<tr>

<td>Pharmacy open to public</td>

<td>Y</td>

</tr>

<tr bgcolor="#D4E4F3">

<td>Fuel Station open to public</td>

<td>Y</td>

</tr>

<tr>

<td>Business Unit #</td>

<td>4700</td>

</tr>

<tr bgcolor="#D4E4F3">

<td>Grocery delivery service offered</td>

<td>No</td>

</tr>

<tr>

<td>Grocery delivery status</td>

<td>&lt;Null&gt;</td>

</tr>

<tr bgcolor="#D4E4F3">

<td>Online grocery pickup service offered</td>

<td>No</td>

</tr>

<tr>

<td>Online grocery pickup status</td>

<td>&lt;Null&gt;</td>

</tr>

<tr bgcolor="#D4E4F3">

<td>FID_UtahCountyBoundary</td>

<td>0</td>

</tr>

<tr>

<td>COUNTYNBR</td>

<td>25</td>

</tr>

<tr bgcolor="#D4E4F3">

<td>ENTITYNBR</td>

<td>2010251010</td>

</tr>

<tr>

<td>ENTITYYR</td>

<td>2010</td>

</tr>

<tr bgcolor="#D4E4F3">

<td>NAME</td>

<td>UTAH</td>

</tr>

<tr>

<td>FIPS</td>

<td>49</td>

</tr>

<tr bgcolor="#D4E4F3">

<td>STATEPLANE</td>

<td>Central</td>

</tr>

<tr>

<td>POP_LASTCE</td>

<td>516564</td>

</tr>

<tr bgcolor="#D4E4F3">

<td>POP_CURRES</td>

<td>516564</td>

</tr>

<tr>

<td>FIPS_STR</td>

<td>49049</td>

</tr>

<tr bgcolor="#D4E4F3">

<td>COLOR4</td>

<td>3</td>

</tr>

<tr>

<td>Shape_Leng</td>

<td>481096.558971</td>

</tr>

</table>

</td>

</tr>

</table>

</body><script type="text/javascript">

				function changeImage(attElement, nameElement) {

				document.getElementById('imageAttachment').src = attElement;

				document.getElementById('imageName').innerHTML = nameElement;}

			</script></html>

]]></description>
      <Point>
        <extrude>0</extrude><altitudeMode>clampToGround</altitudeMode>
        <coordinates> -111.7651770003585,40.36745300010482,0</coordinates>
      </Point>
    </Placemark>
    <Placemark id="ID_00009">
      <name>UTAH</name>
      <snippet></snippet>
      <description><![CDATA[<html xmlns:fo="http://www.w3.org/1999/XSL/Format" xmlns:msxsl="urn:schemas-microsoft-com:xslt">

<head>

<META http-equiv="Content-Type" content="text/html">

<meta http-equiv="content-type" content="text/html; charset=UTF-8">

</head>

<body style="margin:0px 0px 0px 0px;overflow:auto;background:#FFFFFF;">

<table style="font-family:Arial,Verdana,Times;font-size:12px;text-align:left;width:100%;border-collapse:collapse;padding:3px 3px 3px 3px">

<tr style="text-align:center;font-weight:bold;background:#9CBCE2">

<td>UTAH</td>

</tr>

<tr>

<td>

<table style="font-family:Arial,Verdana,Times;font-size:12px;text-align:left;width:100%;border-spacing:0px; padding:3px 3px 3px 3px">

<tr>

<td>FID_WalmartStoreStatus_ExportFeatures</td>

<td>1244</td>

</tr>

<tr bgcolor="#D4E4F3">

<td>businessUnit_name</td>

<td>AMERICAN FORK, UT</td>

</tr>

<tr>

<td>businessUnit_number</td>

<td>2511</td>

</tr>

<tr bgcolor="#D4E4F3">

<td>Description</td>

<td>WM Supercenter</td>

</tr>

<tr>

<td>Type</td>

<td>Retail</td>

</tr>

<tr bgcolor="#D4E4F3">

<td>businessUnit_isStoreOpen</td>

<td>true</td>

</tr>

<tr>

<td>Address</td>

<td>949 W GRASSLAND DR</td>

</tr>

<tr bgcolor="#D4E4F3">

<td>City</td>

<td>AMERICAN FORK</td>

</tr>

<tr>

<td>County</td>

<td>UTAH</td>

</tr>

<tr bgcolor="#D4E4F3">

<td>State</td>

<td>UT</td>

</tr>

<tr>

<td>Postal Code</td>

<td>84003-2753</td>

</tr>

<tr bgcolor="#D4E4F3">

<td>businessUnit_status_code</td>

<td>5</td>

</tr>

<tr>

<td>Operation Status</td>

<td>Open</td>

</tr>

<tr bgcolor="#D4E4F3">

<td>Modified Operating Hours</td>

<td>&lt;Null&gt;</td>

</tr>

<tr>

<td>Pharmacy open to public</td>

<td>Y</td>

</tr>

<tr bgcolor="#D4E4F3">

<td>Fuel Station open to public</td>

<td>Y</td>

</tr>

<tr>

<td>Business Unit #</td>

<td>2511</td>

</tr>

<tr bgcolor="#D4E4F3">

<td>Grocery delivery service offered</td>

<td>No</td>

</tr>

<tr>

<td>Grocery delivery status</td>

<td>Available</td>

</tr>

<tr bgcolor="#D4E4F3">

<td>Online grocery pickup service offered</td>

<td>Yes</td>

</tr>

<tr>

<td>Online grocery pickup status</td>

<td>Available</td>

</tr>

<tr bgcolor="#D4E4F3">

<td>FID_UtahCountyBoundary</td>

<td>0</td>

</tr>

<tr>

<td>COUNTYNBR</td>

<td>25</td>

</tr>

<tr bgcolor="#D4E4F3">

<td>ENTITYNBR</td>

<td>2010251010</td>

</tr>

<tr>

<td>ENTITYYR</td>

<td>2010</td>

</tr>

<tr bgcolor="#D4E4F3">

<td>NAME</td>

<td>UTAH</td>

</tr>

<tr>

<td>FIPS</td>

<td>49</td>

</tr>

<tr bgcolor="#D4E4F3">

<td>STATEPLANE</td>

<td>Central</td>

</tr>

<tr>

<td>POP_LASTCE</td>

<td>516564</td>

</tr>

<tr bgcolor="#D4E4F3">

<td>POP_CURRES</td>

<td>516564</td>

</tr>

<tr>

<td>FIPS_STR</td>

<td>49049</td>

</tr>

<tr bgcolor="#D4E4F3">

<td>COLOR4</td>

<td>3</td>

</tr>

<tr>

<td>Shape_Leng</td>

<td>481096.558971</td>

</tr>

</table>

</td>

</tr>

</table>

</body><script type="text/javascript">

				function changeImage(attElement, nameElement) {

				document.getElementById('imageAttachment').src = attElement;

				document.getElementById('imageName').innerHTML = nameElement;}

			</script></html>

]]></description>
      <Point>
        <extrude>0</extrude><altitudeMode>clampToGround</altitudeMode>
        <coordinates> -111.8251950003726,40.38485900019978,0</coordinates>
      </Point>
    </Placemark>
    <Placemark id="ID_00010">
      <name>UTAH</name>
      <snippet></snippet>
      <description><![CDATA[<html xmlns:fo="http://www.w3.org/1999/XSL/Format" xmlns:msxsl="urn:schemas-microsoft-com:xslt">

<head>

<META http-equiv="Content-Type" content="text/html">

<meta http-equiv="content-type" content="text/html; charset=UTF-8">

</head>

<body style="margin:0px 0px 0px 0px;overflow:auto;background:#FFFFFF;">

<table style="font-family:Arial,Verdana,Times;font-size:12px;text-align:left;width:100%;border-collapse:collapse;padding:3px 3px 3px 3px">

<tr style="text-align:center;font-weight:bold;background:#9CBCE2">

<td>UTAH</td>

</tr>

<tr>

<td>

<table style="font-family:Arial,Verdana,Times;font-size:12px;text-align:left;width:100%;border-spacing:0px; padding:3px 3px 3px 3px">

<tr>

<td>FID_WalmartStoreStatus_ExportFeatures</td>

<td>1916</td>

</tr>

<tr bgcolor="#D4E4F3">

<td>businessUnit_name</td>

<td>SARATOGA SPRINGS, UT</td>

</tr>

<tr>

<td>businessUnit_number</td>

<td>4438</td>

</tr>

<tr bgcolor="#D4E4F3">

<td>Description</td>

<td>WM Supercenter</td>

</tr>

<tr>

<td>Type</td>

<td>Retail</td>

</tr>

<tr bgcolor="#D4E4F3">

<td>businessUnit_isStoreOpen</td>

<td>true</td>

</tr>

<tr>

<td>Address</td>

<td>136 W STATE ROAD 73</td>

</tr>

<tr bgcolor="#D4E4F3">

<td>City</td>

<td>SARATOGA SPRINGS</td>

</tr>

<tr>

<td>County</td>

<td>UTAH</td>

</tr>

<tr bgcolor="#D4E4F3">

<td>State</td>

<td>UT</td>

</tr>

<tr>

<td>Postal Code</td>

<td>84045-2900</td>

</tr>

<tr bgcolor="#D4E4F3">

<td>businessUnit_status_code</td>

<td>2</td>

</tr>

<tr>

<td>Operation Status</td>

<td>Open</td>

</tr>

<tr bgcolor="#D4E4F3">

<td>Modified Operating Hours</td>

<td>&lt;Null&gt;</td>

</tr>

<tr>

<td>Pharmacy open to public</td>

<td>Y</td>

</tr>

<tr bgcolor="#D4E4F3">

<td>Fuel Station open to public</td>

<td>Y</td>

</tr>

<tr>

<td>Business Unit #</td>

<td>4438</td>

</tr>

<tr bgcolor="#D4E4F3">

<td>Grocery delivery service offered</td>

<td>Yes</td>

</tr>

<tr>

<td>Grocery delivery status</td>

<td>Available</td>

</tr>

<tr bgcolor="#D4E4F3">

<td>Online grocery pickup service offered</td>

<td>Yes</td>

</tr>

<tr>

<td>Online grocery pickup status</td>

<td>Available</td>

</tr>

<tr bgcolor="#D4E4F3">

<td>FID_UtahCountyBoundary</td>

<td>0</td>

</tr>

<tr>

<td>COUNTYNBR</td>

<td>25</td>

</tr>

<tr bgcolor="#D4E4F3">

<td>ENTITYNBR</td>

<td>2010251010</td>

</tr>

<tr>

<td>ENTITYYR</td>

<td>2010</td>

</tr>

<tr bgcolor="#D4E4F3">

<td>NAME</td>

<td>UTAH</td>

</tr>

<tr>

<td>FIPS</td>

<td>49</td>

</tr>

<tr bgcolor="#D4E4F3">

<td>STATEPLANE</td>

<td>Central</td>

</tr>

<tr>

<td>POP_LASTCE</td>

<td>516564</td>

</tr>

<tr bgcolor="#D4E4F3">

<td>POP_CURRES</td>

<td>516564</td>

</tr>

<tr>

<td>FIPS_STR</td>

<td>49049</td>

</tr>

<tr bgcolor="#D4E4F3">

<td>COLOR4</td>

<td>3</td>

</tr>

<tr>

<td>Shape_Leng</td>

<td>481096.558971</td>

</tr>

</table>

</td>

</tr>

</table>

</body><script type="text/javascript">

				function changeImage(attElement, nameElement) {

				document.getElementById('imageAttachment').src = attElement;

				document.getElementById('imageName').innerHTML = nameElement;}

			</script></html>

]]></description>
      <Point>
        <extrude>0</extrude><altitudeMode>clampToGround</altitudeMode>
        <coordinates> -111.9196810003089,40.38949299972152,0</coordinates>
      </Point>
    </Placemark>
    <Placemark id="ID_00011">
      <name>UTAH</name>
      <snippet></snippet>
      <description><![CDATA[<html xmlns:fo="http://www.w3.org/1999/XSL/Format" xmlns:msxsl="urn:schemas-microsoft-com:xslt">

<head>

<META http-equiv="Content-Type" content="text/html">

<meta http-equiv="content-type" content="text/html; charset=UTF-8">

</head>

<body style="margin:0px 0px 0px 0px;overflow:auto;background:#FFFFFF;">

<table style="font-family:Arial,Verdana,Times;font-size:12px;text-align:left;width:100%;border-collapse:collapse;padding:3px 3px 3px 3px">

<tr style="text-align:center;font-weight:bold;background:#9CBCE2">

<td>UTAH</td>

</tr>

<tr>

<td>

<table style="font-family:Arial,Verdana,Times;font-size:12px;text-align:left;width:100%;border-spacing:0px; padding:3px 3px 3px 3px">

<tr>

<td>FID_WalmartStoreStatus_ExportFeatures</td>

<td>3234</td>

</tr>

<tr bgcolor="#D4E4F3">

<td>businessUnit_name</td>

<td>CEDAR HILLS, UT</td>

</tr>

<tr>

<td>businessUnit_number</td>

<td>4689</td>

</tr>

<tr bgcolor="#D4E4F3">

<td>Description</td>

<td>WM Supercenter</td>

</tr>

<tr>

<td>Type</td>

<td>Retail</td>

</tr>

<tr bgcolor="#D4E4F3">

<td>businessUnit_isStoreOpen</td>

<td>true</td>

</tr>

<tr>

<td>Address</td>

<td>4689 W CEDAR HILLS DR</td>

</tr>

<tr bgcolor="#D4E4F3">

<td>City</td>

<td>CEDAR HILLS</td>

</tr>

<tr>

<td>County</td>

<td>UTAH</td>

</tr>

<tr bgcolor="#D4E4F3">

<td>State</td>

<td>UT</td>

</tr>

<tr>

<td>Postal Code</td>

<td>84062-8093</td>

</tr>

<tr bgcolor="#D4E4F3">

<td>businessUnit_status_code</td>

<td>2</td>

</tr>

<tr>

<td>Operation Status</td>

<td>Open</td>

</tr>

<tr bgcolor="#D4E4F3">

<td>Modified Operating Hours</td>

<td>&lt;Null&gt;</td>

</tr>

<tr>

<td>Pharmacy open to public</td>

<td>Y</td>

</tr>

<tr bgcolor="#D4E4F3">

<td>Fuel Station open to public</td>

<td>Y</td>

</tr>

<tr>

<td>Business Unit #</td>

<td>4689</td>

</tr>

<tr bgcolor="#D4E4F3">

<td>Grocery delivery service offered</td>

<td>No</td>

</tr>

<tr>

<td>Grocery delivery status</td>

<td>&lt;Null&gt;</td>

</tr>

<tr bgcolor="#D4E4F3">

<td>Online grocery pickup service offered</td>

<td>No</td>

</tr>

<tr>

<td>Online grocery pickup status</td>

<td>Available</td>

</tr>

<tr bgcolor="#D4E4F3">

<td>FID_UtahCountyBoundary</td>

<td>0</td>

</tr>

<tr>

<td>COUNTYNBR</td>

<td>25</td>

</tr>

<tr bgcolor="#D4E4F3">

<td>ENTITYNBR</td>

<td>2010251010</td>

</tr>

<tr>

<td>ENTITYYR</td>

<td>2010</td>

</tr>

<tr bgcolor="#D4E4F3">

<td>NAME</td>

<td>UTAH</td>

</tr>

<tr>

<td>FIPS</td>

<td>49</td>

</tr>

<tr bgcolor="#D4E4F3">

<td>STATEPLANE</td>

<td>Central</td>

</tr>

<tr>

<td>POP_LASTCE</td>

<td>516564</td>

</tr>

<tr bgcolor="#D4E4F3">

<td>POP_CURRES</td>

<td>516564</td>

</tr>

<tr>

<td>FIPS_STR</td>

<td>49049</td>

</tr>

<tr bgcolor="#D4E4F3">

<td>COLOR4</td>

<td>3</td>

</tr>

<tr>

<td>Shape_Leng</td>

<td>481096.558971</td>

</tr>

</table>

</td>

</tr>

</table>

</body><script type="text/javascript">

				function changeImage(attElement, nameElement) {

				document.getElementById('imageAttachment').src = attElement;

				document.getElementById('imageName').innerHTML = nameElement;}

			</script></html>

]]></description>
      <Point>
        <extrude>0</extrude><altitudeMode>clampToGround</altitudeMode>
        <coordinates> -111.7704210002712,40.41659400018153,0</coordinates>
      </Point>
    </Placemark>
  </Folder>
  <Style id="IconStyle00">
    <IconStyle>
      <scale>1.156250</scale>
      <Icon><href>Layer0_Symbol_d47a6480_0.png</href></Icon>
    </IconStyle>
    <LabelStyle>
      <color>00000000</color>
      <scale>0.000000</scale>
    </LabelStyle>
    <PolyStyle>
      <color>ff000000</color>
      <outline>0</outline>
    </PolyStyle>
  </Style>
</Document>
</kml>
